{
  "type": "FeatureCollection",
  "features": [
    {
      "type": "Feature",
      "geometry": {
        "type": "Polygon",
        "coordinates": [
          [
            [-44.78373969399377, -20.969914872544162],
            [-44.78430154362003, -20.96967407908028],
            [-44.78430156707721, -20.969674068657156],
            [-44.784301569508294, -20.96967406798234],
            [-44.784301572093206, -20.969674066428315],
            [-44.784305162386985, -20.969672471091084],
            [-44.78432037170114, -20.969662764264978],
            [-44.78433586136855, -20.969653452006725],
            [-44.784545445160845, -20.969484021769134],
            [-44.78454843837913, -20.969481533396145],
            [-44.78454870080164, -20.96948123526166],
            [-44.784549040632406, -20.969481015636045],
            [-44.78456164406434, -20.969466530602492],
            [-44.78457433513863, -20.96945211244728],
            [-44.78457449793745, -20.969451757734856],
            [-44.78457475854755, -20.969451458217417],
            [-44.784582527537694, -20.969434262525517],
            [-44.78459040068759, -20.969417108192],
            [-44.784590450903984, -20.969416725136785],
            [-44.78459061154889, -20.969416369569146],
            [-44.784592927688195, -20.969397831997558],
            [-44.78459535621418, -20.9693793069719],
            [-44.784595289851, -20.969378926065104],
            [-44.784595337743454, -20.96937854275047],
            [-44.784592016671155, -20.969360138890586],
            [-44.784588807266694, -20.96934171776504],
            [-44.78458862960654, -20.969341369326838],
            [-44.78458856093438, -20.969340988777063],
            [-44.784579867012035, -20.969324183576063],
            [-44.784571275149396, -20.96930733267105],
            [-44.78457100033408, -20.969307044437087],
            [-44.78457082056369, -20.969306696943907],
            [-44.78441176624582, -20.969085620972834],
            [-44.784403576724, -20.968648356386563],
            [-44.78440345111116, -20.96864461604424],
            [-44.784402836875415, -20.96864158057532],
            [-44.78440300511335, -20.968638495391055],
            [-44.78438712132682, -20.968475351199874],
            [-44.784529354691344, -20.96782000792572],
            [-44.78468013793811, -20.967261231851484],
            [-44.78468106317616, -20.967257590770807],
            [-44.784681300779425, -20.967254736418933],
            [-44.7846822609777, -20.96725201748053],
            [-44.784682877060156, -20.967235800397088],
            [-44.78468422379624, -20.967219621914893],
            [-44.78468359815055, -20.96721681919484],
            [-44.78468370684526, -20.96721395803258],
            [-44.7846659078746, -20.967057868028494],
            [-44.78466542835407, -20.967054152732953],
            [-44.78466072000479, -20.9670385906596],
            [-44.784656731631436, -20.967022854146958],
            [-44.784655190265816, -20.967020313718216],
            [-44.784654340140804, -20.967017503877184],
            [-44.78464516427336, -20.96700378920066],
            [-44.78463662754942, -20.966989719244133],
            [-44.78463438764022, -20.96698768194174],
            [-44.784632730873824, -20.96698520566099],
            [-44.78461981788911, -20.96697443006818],
            [-44.784607412339405, -20.966963146634715],
            [-44.7843652070086, -20.966797997806037],
            [-44.78433870879567, -20.96655337489408],
            [-44.78439823469403, -20.966355018680225],
            [-44.784399262456155, -20.96635140165572],
            [-44.78440065119807, -20.96633897204219],
            [-44.78440333396499, -20.966326728626516],
            [-44.78441226903542, -20.96618849828476],
            [-44.784412455013474, -20.966184760135597],
            [-44.78441219702824, -20.96618255830539],
            [-44.78441253164027, -20.966180365484995],
            [-44.78441253161218, -20.96615130729353],
            [-44.78470024912041, -20.96590982523438],
            [-44.78496581115343, -20.965842414000342],
            [-44.784969663370255, -20.965841382380713],
            [-44.78497183757973, -20.96584043970518],
            [-44.784974194030355, -20.965840029005218],
            [-44.784990294625565, -20.96583243725228],
            [-44.785006654000426, -20.965825344287797],
            [-44.785008459705786, -20.9658238720506],
            [-44.78501059952197, -20.965822863083925],
            [-44.785295258073205, -20.965637421314703],
            [-44.785534269393246, -20.965530734329388],
            [-44.785535949785036, -20.965529957352825],
            [-44.785536043135295, -20.965529928657812],
            [-44.78553612443412, -20.965529876598886],
            [-44.785537860730614, -20.965529073773183],
            [-44.78555369140703, -20.965518627755376],
            [-44.785569678003114, -20.96550839088806],
            [-44.78568513048795, -20.9654094302003],
            [-44.785711067379026, -20.965420954829877],
            [-44.78585738187547, -20.965710208559596],
            [-44.78577850500474, -20.965964122754382],
            [-44.78569064751852, -20.966062962467152],
            [-44.78568813096632, -20.966065874805015],
            [-44.78568182261512, -20.966076079477727],
            [-44.78567436765086, -20.96608558603583],
            [-44.785671676445205, -20.966092492375225],
            [-44.78566774172299, -20.966098857356446],
            [-44.78566473683496, -20.96611030123162],
            [-44.785660422151174, -20.966121373837368],
            [-44.78565990385975, -20.96612870722654],
            [-44.785658029614055, -20.966135845138332],
            [-44.785658567380516, -20.966147617284182],
            [-44.78565773642817, -20.966159374558835],
            [-44.78565943230858, -20.96616655126023],
            [-44.78565976773089, -20.966173893925056],
            [-44.785663805348264, -20.966185057278867],
            [-44.785666524273815, -20.966196563343335],
            [-44.78567029933554, -20.966203012091313],
            [-44.785672817727864, -20.96620997503286],
            [-44.78568003380402, -20.966219640991024],
            [-44.785686086183276, -20.966229979961945],
            [-44.785691639932445, -20.96623518743561],
            [-44.78569614083193, -20.966241216403173],
            [-44.78570596096837, -20.96624861555437],
            [-44.78571486503313, -20.966256964448505],
            [-44.78601909485512, -20.96647110508744],
            [-44.78621852449298, -20.966687557022542],
            [-44.78622118003579, -20.96669035968715],
            [-44.786225843226454, -20.9666939613077],
            [-44.78622964839999, -20.966698355319828],
            [-44.786241490992865, -20.966706046875487],
            [-44.78625260686188, -20.9667146322258],
            [-44.78625816176997, -20.966716874249105],
            [-44.78626312982905, -20.966720100914618],
            [-44.7862768017757, -20.96672439756298],
            [-44.78629004327266, -20.96672974197691],
            [-44.786296047726736, -20.96673044593745],
            [-44.78630178321329, -20.96673224841323],
            [-44.78631619622453, -20.966732808140183],
            [-44.786330509324024, -20.96673448620141],
            [-44.78633648536839, -20.966733596063737],
            [-44.78634253173658, -20.966733830872386],
            [-44.786356538533745, -20.966730609123466],
            [-44.78637078391009, -20.966728487258045],
            [-44.78637625585033, -20.966726073877254],
            [-44.786382131808, -20.96672472232801],
            [-44.78682795692963, -20.96655696731737],
            [-44.78693229039431, -20.966525097483707],
            [-44.78722706344882, -20.96664228302104],
            [-44.78741693026394, -20.96681751979146],
            [-44.7877018388489, -20.967519164195306],
            [-44.78774007059001, -20.967654958549424],
            [-44.787741143173314, -20.96765856421122],
            [-44.78774340027095, -20.96766320449397],
            [-44.78774458276864, -20.967668179945246],
            [-44.78775180022817, -20.96768047364957],
            [-44.78775800922983, -20.967693238499336],
            [-44.78776156449931, -20.96769710540689],
            [-44.78776418819356, -20.96770157441829],
            [-44.7877747956995, -20.967711496389008],
            [-44.787784575813745, -20.967722133777528],
            [-44.78778914625589, -20.967724919503535],
            [-44.78779300230115, -20.96772852634127],
            [-44.7880025696663, -20.967875663550043],
            [-44.788005805883785, -20.967877870793547],
            [-44.788011179853264, -20.96788045428845],
            [-44.788015897627346, -20.96788398254824],
            [-44.788080414541355, -20.967919585054727],
            [-44.788102014534275, -20.96803552719423],
            [-44.78815458926637, -20.96838895232333],
            [-44.78816338671205, -20.96899047166001],
            [-44.78816338637433, -20.969339739010966],
            [-44.78812063799437, -20.969471736288863],
            [-44.78812015705284, -20.96947317969148],
            [-44.788105381985226, -20.969470141862555],
            [-44.78708229327611, -20.969155662889627],
            [-44.78707846962825, -20.969154542166667],
            [-44.7870752404561, -20.969154090300638],
            [-44.787072216667376, -20.969152939663424],
            [-44.78705512758556, -20.969151275855555],
            [-44.787038135600554, -20.969148898122],
            [-44.78703489978578, -20.969149306457133],
            [-44.78703165216157, -20.96914899026503],
            [-44.78701474554087, -20.969151849767602],
            [-44.786997718600354, -20.96915399843443],
            [-44.786994733713115, -20.96915523446732],
            [-44.78699152076365, -20.969155777889167],
            [-44.78686221815866, -20.969195887036772],
            [-44.78685843280575, -20.96919711589642],
            [-44.78685813933886, -20.96919726205809],
            [-44.78685781414636, -20.969197327246338],
            [-44.78684015227374, -20.969206220543796],
            [-44.78682244717941, -20.969215038590615],
            [-44.7868222091128, -20.96921525547564],
            [-44.786821916362214, -20.969215402884515],
            [-44.786573157731844, -20.969386939313022],
            [-44.78615590921292, -20.969582841835717],
            [-44.78527768176893, -20.969865249342465],
            [-44.7852739110011, -20.96986651674128],
            [-44.78526420001958, -20.96987148127971],
            [-44.78525388143518, -20.969875227652754],
            [-44.785246402333414, -20.96988057997636],
            [-44.78523813703455, -20.96988480543737],
            [-44.78523029756385, -20.96989210514649],
            [-44.785221510289446, -20.969898393644424],
            [-44.78515425007073, -20.96996247481674],
            [-44.78455151681693, -20.970127613217546],
            [-44.78409582327751, -20.970175331851063],
            [-44.78409184719757, -20.97017580040484],
            [-44.78408201375369, -20.970178450115224],
            [-44.784071878091886, -20.97017977635357],
            [-44.783854242227626, -20.970238381196488],
            [-44.78372356732128, -20.97024770511718],
            [-44.78359793377153, -20.969966286359842],
            [-44.78373148920255, -20.969918107007103],
            [-44.783735207155736, -20.969916710165556],
            [-44.78373732733998, -20.96991552899581],
            [-44.78373969399377, -20.969914872544162]
          ]
        ]
      },
      "id": "00000000000000000312",
      "properties": {
        "Area_ha": 16.258422,
        "CD_MUN": 3108008,
        "NM_MUN": "Bom Sucesso",
        "Name": "Café",
        "Ultima_at": 1655103600000,
        "ha_recorte": 16.305079799216674
      }
    },
    {
      "type": "Feature",
      "geometry": {
        "type": "Polygon",
        "coordinates": [
          [
            [-44.78328208976564, -20.970310260974376],
            [-44.7829233878868, -20.970466182422008],
            [-44.78226010811257, -20.970322031471063],
            [-44.78216345075686, -20.970292640669438],
            [-44.78216090359106, -20.970291902451734],
            [-44.782160824004016, -20.970291867710284],
            [-44.78216074329426, -20.97029185599463],
            [-44.782159623256014, -20.97029153138596],
            [-44.782140060492914, -20.970288853722845],
            [-44.78212052333352, -20.97028601774763],
            [-44.782119895830654, -20.970286093672048],
            [-44.7821192697721, -20.970286007979848],
            [-44.782099684649154, -20.9702885391132],
            [-44.78208007675481, -20.97029091155758],
            [-44.78195969606453, -20.970322069361707],
            [-44.78195584926991, -20.97032311884419],
            [-44.78195288565675, -20.970324420499402],
            [-44.781949676883386, -20.970325032789017],
            [-44.78180248889524, -20.970374132462428],
            [-44.781798733923445, -20.97037544014548],
            [-44.78178848158396, -20.97038082498814],
            [-44.781777610587355, -20.970385020488255],
            [-44.78177079532729, -20.970390114349392],
            [-44.78176318673362, -20.970394110613864],
            [-44.78175495317967, -20.970401955083737],
            [-44.78174576982823, -20.97040881890064],
            [-44.78174074951869, -20.970415487534957],
            [-44.781734639130725, -20.97042130916863],
            [-44.781729079753035, -20.970430988847088],
            [-44.78172231504121, -20.97043997462206],
            [-44.781651767059635, -20.970569283579785],
            [-44.78135713058444, -20.970855523394444],
            [-44.781110448088974, -20.97107139610954],
            [-44.78104380202486, -20.971129135844507],
            [-44.781040902217626, -20.971131718892234],
            [-44.781039920524044, -20.97113291584625],
            [-44.78103864136606, -20.971133835802785],
            [-44.78102753961669, -20.97114801156952],
            [-44.78101610436619, -20.971161954274095],
            [-44.78101551978529, -20.971163359626626],
            [-44.781014566721524, -20.97116457658837],
            [-44.780961094775385, -20.97125821509712],
            [-44.78095925833398, -20.971261541265257],
            [-44.78095872393545, -20.97126304399606],
            [-44.78095779403196, -20.971264368097337],
            [-44.78095230717501, -20.971281087949546],
            [-44.780946405278954, -20.971297684098495],
            [-44.78094634165755, -20.971299266397967],
            [-44.78094584483917, -20.971300780329674],
            [-44.78094557772701, -20.971318265768094],
            [-44.7809448750923, -20.97133574067327],
            [-44.78094528731262, -20.971337276590422],
            [-44.78094526312641, -20.971338859843645],
            [-44.78096780968766, -20.971503378114917],
            [-44.78093290896399, -20.971538276186575],
            [-44.78073713534316, -20.9714569715503],
            [-44.78073345131136, -20.9714554983438],
            [-44.7807315890256, -20.971455055757616],
            [-44.78072990811057, -20.971454186161356],
            [-44.78037324642175, -20.971327155626735],
            [-44.78019550973183, -20.971149346873634],
            [-44.780192734820446, -20.971146646854777],
            [-44.78017869451715, -20.971136668390358],
            [-44.78016507480362, -20.971126193988187],
            [-44.77958537474604, -20.970796223170506],
            [-44.77958192420353, -20.970794319829594],
            [-44.779568583416875, -20.970789370598755],
            [-44.77955573642954, -20.9707833897938],
            [-44.77942641282201, -20.970743243323124],
            [-44.7794225926865, -20.97074211208506],
            [-44.77940789300328, -20.97074001377405],
            [-44.779393410179324, -20.970736864042948],
            [-44.77938781514522, -20.9707371477516],
            [-44.77938227621496, -20.9707363570942],
            [-44.77936753391854, -20.970738176154796],
            [-44.77935268534266, -20.97073892908222],
            [-44.77899152101759, -20.970805814167335],
            [-44.778987601134354, -20.970806592980804],
            [-44.7789781353307, -20.97080997100917],
            [-44.77896825030736, -20.97081205377258],
            [-44.778629316574815, -20.970932433315884],
            [-44.7786255908635, -20.970933812075522],
            [-44.778622267706695, -20.97093564159278],
            [-44.77861858532446, -20.970936715328747],
            [-44.77847172159313, -20.971001983837954],
            [-44.7783069315024, -20.97103900328995],
            [-44.778221349426026, -20.971013731452807],
            [-44.77831564290078, -20.97079183045797],
            [-44.778315669012116, -20.970791766435166],
            [-44.77831567252145, -20.970791760694908],
            [-44.77850297824888, -20.97035025583725],
            [-44.77850440245681, -20.970346757931193],
            [-44.778508063755346, -20.970330552187097],
            [-44.77851236628588, -20.970314484407357],
            [-44.77854360745226, -20.970033568193557],
            [-44.778543966104834, -20.97002984102817],
            [-44.77854325147763, -20.97001971268278],
            [-44.77854398018256, -20.970009585212004],
            [-44.7785419175683, -20.970000807305293],
            [-44.77854128486288, -20.969991840026506],
            [-44.778537569036814, -20.969982301173822],
            [-44.778535239359954, -20.96997238671996],
            [-44.778463891476626, -20.96979405498099],
            [-44.77846243705966, -20.969790567932],
            [-44.778455639600814, -20.969779654854594],
            [-44.77844999325647, -20.969768183807503],
            [-44.778445433263016, -20.96976326894028],
            [-44.77844193199356, -20.969757647775058],
            [-44.77843214070692, -20.969748941910968],
            [-44.77842328781822, -20.969739400057428],
            [-44.778224799327134, -20.969578360865384],
            [-44.778122974317334, -20.96907726378256],
            [-44.77808304548518, -20.96885569671852],
            [-44.77808296148678, -20.968855267087868],
            [-44.778082960321186, -20.968855229159534],
            [-44.77808294590443, -20.968855187388037],
            [-44.77808232573624, -20.96885201538423],
            [-44.77807617377636, -20.968835565645147],
            [-44.77807045008321, -20.968818981661055],
            [-44.778069461223836, -20.968817616931755],
            [-44.7780688794421, -20.96881606130371],
            [-44.77805805184341, -20.968801870792113],
            [-44.77804759531154, -20.96878743967965],
            [-44.778046237587716, -20.96878638717667],
            [-44.77804521363771, -20.968785045200438],
            [-44.77803057227866, -20.96877424347948],
            [-44.77801621524912, -20.96876311395336],
            [-44.77757462059058, -20.96850954253699],
            [-44.77743276936968, -20.96839956954687],
            [-44.77735270777727, -20.96820902355226],
            [-44.777351192484176, -20.968205559185396],
            [-44.77734809692355, -20.968200771287815],
            [-44.777346085148444, -20.968195503423527],
            [-44.77713928067143, -20.967828246084473],
            [-44.777075124058356, -20.967404243072544],
            [-44.77751142530766, -20.967128285143634],
            [-44.778569433245366, -20.96669188269199],
            [-44.77878765476079, -20.966602799616496],
            [-44.77879130412293, -20.966601253245894],
            [-44.778793087696656, -20.966600158747134],
            [-44.77879510842181, -20.966599517461187],
            [-44.77881009725171, -20.966589720748544],
            [-44.77882538692047, -20.966580338164093],
            [-44.77882677212287, -20.96657882203476],
            [-44.77882852060233, -20.966577679226518],
            [-44.77883998249682, -20.966564363037147],
            [-44.778851857130356, -20.966551366028774],
            [-44.77885273369934, -20.966549548952976],
            [-44.77885407075404, -20.966547995590172],
            [-44.77886109334686, -20.966532219894596],
            [-44.77886860772521, -20.966516643025813],
            [-44.77886890588615, -20.966514669642965],
            [-44.778869725086686, -20.966512829373467],
            [-44.77898597334865, -20.966091939737133],
            [-44.77924191642873, -20.965920115771784],
            [-44.779454808880246, -20.96583805042157],
            [-44.77946728364706, -20.965871713549692],
            [-44.77937660841471, -20.96597369974801],
            [-44.77937409151021, -20.965976611819265],
            [-44.77937237779494, -20.96597938327782],
            [-44.779370017660746, -20.965981703779196],
            [-44.77936220964329, -20.965995827436956],
            [-44.77935369827229, -20.966009592210618],
            [-44.77935288175264, -20.96601270033777],
            [-44.77935130965247, -20.966015544055303],
            [-44.77934803701799, -20.966031142085033],
            [-44.77934398167572, -20.96604657896344],
            [-44.779344127347244, -20.96604977635249],
            [-44.77934346842078, -20.96605291692648],
            [-44.779334532141235, -20.966213462996343],
            [-44.7793343796213, -20.96621720246618],
            [-44.77933620693498, -20.966231678184066],
            [-44.77933699522964, -20.966246235523197],
            [-44.779338585438964, -20.9662505203485],
            [-44.779339153949124, -20.96625502400297],
            [-44.77934523847821, -20.966268446986234],
            [-44.779350349756136, -20.96628221933959],
            [-44.77944524956879, -20.966454473920518],
            [-44.77937045873513, -20.966716358471697],
            [-44.77936947987758, -20.966719987306053],
            [-44.779369213838045, -20.966722699230715],
            [-44.77936825674901, -20.966725271684233],
            [-44.77936735818799, -20.96674161514964],
            [-44.77936575947718, -20.966757911906132],
            [-44.779366315212876, -20.966760585284533],
            [-44.77936616568431, -20.966763304981964],
            [-44.77937019152002, -20.96677923233979],
            [-44.779373531101264, -20.966795297460237],
            [-44.77937486437623, -20.966797719491375],
            [-44.7793755343112, -20.9668003699448],
            [-44.779433511714856, -20.96693858702936],
            [-44.779435024897225, -20.966942052195687],
            [-44.77943752905035, -20.966945930350903],
            [-44.77943908323738, -20.966950220075354],
            [-44.77944802033181, -20.96696217808389],
            [-44.77945608378511, -20.966974665863084],
            [-44.779459648303785, -20.96697773653606],
            [-44.77946242377312, -20.966981450167292],
            [-44.779474582042106, -20.96699060127966],
            [-44.77948605990562, -20.967000488940226],
            [-44.7794904010542, -20.96700250770492],
            [-44.779494176878714, -20.967005349637418],
            [-44.77950858852367, -20.967010965423615],
            [-44.7795225671589, -20.967017465906224],
            [-44.77952733938142, -20.96701827206858],
            [-44.779531815005164, -20.967020016084046],
            [-44.779955384963664, -20.967122608408516],
            [-44.779959277705466, -20.967123497669423],
            [-44.779969167651466, -20.967124280133294],
            [-44.779978830440214, -20.967126397934823],
            [-44.780085848271014, -20.967135315342894],
            [-44.780089124671484, -20.96713554565423],
            [-44.780089181662156, -20.967135556852966],
            [-44.78008923264162, -20.967135553243885],
            [-44.7800898445007, -20.9671355962539],
            [-44.780109843066036, -20.96713409413027],
            [-44.780129848810596, -20.96713267782253],
            [-44.78033557196114, -20.967090282533498],
            [-44.78043699538721, -20.96723521680593],
            [-44.78043726361566, -20.967235588741612],
            [-44.7804372813565, -20.9672356238513],
            [-44.780437313164605, -20.967235657448047],
            [-44.78043923388018, -20.96723832078455],
            [-44.78045193095606, -20.967251097223823],
            [-44.78046429438482, -20.96726415586665],
            [-44.78046578018822, -20.967265033017398],
            [-44.780466975904304, -20.967266236206857],
            [-44.7804829893236, -20.967275192506555],
            [-44.78049876678769, -20.967284506799494],
            [-44.78050045582939, -20.96728496151408],
            [-44.78050196385388, -20.96728580495124],
            [-44.78052001894683, -20.967290228188276],
            [-44.780537954558184, -20.967295056712],
            [-44.7805397123902, -20.96729505279503],
            [-44.78054141268414, -20.967295469342154],
            [-44.780560072262105, -20.967295007425907],
            [-44.78057873834261, -20.967294965829034],
            [-44.78058042504114, -20.967294503592292],
            [-44.78058218226077, -20.967294460092155],
            [-44.78059996101757, -20.96728914979113],
            [-44.78061787174326, -20.96728424138488],
            [-44.78125127532876, -20.96701512343368],
            [-44.78164349485119, -20.967122112969818],
            [-44.78162258168984, -20.967149089527453],
            [-44.78162027695391, -20.96715215094168],
            [-44.781618076325636, -20.967156326564982],
            [-44.78161497425818, -20.967159969068447],
            [-44.781494592381804, -20.967351694746398],
            [-44.781494500199564, -20.96735184633743],
            [-44.78149448932819, -20.967351859139793],
            [-44.78149448145326, -20.967351877165186],
            [-44.78149261353774, -20.967354948897988],
            [-44.781486075450175, -20.9673711181414],
            [-44.78147908404503, -20.967387121160247],
            [-44.781398805265844, -20.96768592535569],
            [-44.781397884059444, -20.9676895673282],
            [-44.781396680548866, -20.967704221367164],
            [-44.78139446023497, -20.967718771463087],
            [-44.781394459972006, -20.967990741380174],
            [-44.78139451551988, -20.967994483201675],
            [-44.78139585705971, -20.968001813325916],
            [-44.78139582527337, -20.96800924966281],
            [-44.78139927581945, -20.968020493299992],
            [-44.78140138583594, -20.968032022347998],
            [-44.78140486657806, -20.968038710836232],
            [-44.78140706042273, -20.968045859497227],
            [-44.781413736848314, -20.968055755674936],
            [-44.78141921146997, -20.968066275537453],
            [-44.78142455434845, -20.96807178998551],
            [-44.781428799195425, -20.96807808193667],
            [-44.781517941918416, -20.968176167392507],
            [-44.781520577112545, -20.96817898677621],
            [-44.781529592125025, -20.968186045957065],
            [-44.78153763373234, -20.96819406524156],
            [-44.78200864243135, -20.968547335545033],
            [-44.782427944923874, -20.96900586059482],
            [-44.7824305893242, -20.96900867246454],
            [-44.782444400134494, -20.96901942013627],
            [-44.78245781490854, -20.969030596626904],
            [-44.782802673019695, -20.969244795750374],
            [-44.782759740225515, -20.969471537148134],
            [-44.78267777497554, -20.969643746043587],
            [-44.782676198262585, -20.96964718643428],
            [-44.78267548057895, -20.969649822412574],
            [-44.78267410454516, -20.96965221960231],
            [-44.782670468311885, -20.969668231952223],
            [-44.782666149173885, -20.96968409569662],
            [-44.782666248539165, -20.969686813945284],
            [-44.78266564432901, -20.96968947461636],
            [-44.78266694250142, -20.969705798057014],
            [-44.78266754049804, -20.96972215691795],
            [-44.78266844900338, -20.969724741064397],
            [-44.782668664712574, -20.969727453427485],
            [-44.78267479395978, -20.96974278861295],
            [-44.782680261494114, -20.969758340424782],
            [-44.782681906823015, -20.96976058477085],
            [-44.78268292528169, -20.96976313292175],
            [-44.78269339771856, -20.969776259170292],
            [-44.78270329957764, -20.969789766007633],
            [-44.78270555076221, -20.969791491903123],
            [-44.78270729090148, -20.969793673008805],
            [-44.78272127292338, -20.969803545469528],
            [-44.78273482092024, -20.969813932186415],
            [-44.782737498766146, -20.96981500224978],
            [-44.782739822071, -20.96981664269393],
            [-44.78312776361657, -20.970017320472106],
            [-44.78313129582983, -20.97001908833884],
            [-44.78313704697236, -20.97002096764066],
            [-44.78314228621207, -20.970023872329605],
            [-44.783156214017666, -20.97002723085759],
            [-44.783169791383806, -20.970031667532997],
            [-44.78317587577773, -20.970031972059683],
            [-44.7831817753618, -20.970033394674466],
            [-44.78331193170308, -20.970046963082762],
            [-44.78340454021285, -20.970249882803532],
            [-44.78340292112239, -20.970250046160146],
            [-44.78339875141446, -20.97025164985761],
            [-44.783394306600016, -20.97025236082439],
            [-44.78337996077909, -20.970258876859525],
            [-44.78336521002399, -20.970264550094996],
            [-44.78328208976564, -20.970310260974376]
          ]
        ]
      },
      "id": "00000000000000000313",
      "properties": {
        "Area_ha": 23.455461,
        "CD_MUN": 3108008,
        "NM_MUN": "Bom Sucesso",
        "Name": "Café",
        "Ultima_at": 1655103600000,
        "ha_recorte": 23.518286041149643
      }
    },
    {
      "type": "Feature",
      "geometry": {
        "type": "Polygon",
        "coordinates": [
          [
            [-44.786078632485754, -20.969978631775998],
            [-44.78653352243006, -20.96975569867192],
            [-44.78653550462337, -20.969754694264548],
            [-44.78653559559435, -20.969754662479414],
            [-44.78670040254288, -20.969670672491652],
            [-44.78678602194478, -20.96971715970488],
            [-44.786789514040024, -20.96971899573837],
            [-44.786805677645994, -20.969724632287],
            [-44.78682156109909, -20.969730925053916],
            [-44.78682473088836, -20.969731276502834],
            [-44.78682772122274, -20.969732319287154],
            [-44.78684492754853, -20.96973351579676],
            [-44.78686206116215, -20.969735415475117],
            [-44.78686520992073, -20.969734926209128],
            [-44.78686839316229, -20.96973514756779],
            [-44.78688527258085, -20.969731808795842],
            [-44.7869022925158, -20.969729164170957],
            [-44.786905169601866, -20.969727873135707],
            [-44.78690829236388, -20.96972725544854],
            [-44.78692350127003, -20.96971964716191],
            [-44.786939052736265, -20.96971266874654],
            [-44.787046126137035, -20.96964579576235],
            [-44.78704942609797, -20.969643672354344],
            [-44.78705491733288, -20.969638810785558],
            [-44.78706124679533, -20.969634938393472],
            [-44.787069646312816, -20.969625770738336],
            [-44.78707902253217, -20.96961746966312],
            [-44.787082841000604, -20.96961136939045],
            [-44.787087760221915, -20.969606000303177],
            [-44.787093083167264, -20.969595006803853],
            [-44.787099603157, -20.969584590656314],
            [-44.78710144490949, -20.969577737262167],
            [-44.78710456232007, -20.96957129885974],
            [-44.78710638498843, -20.969559354599845],
            [-44.78710951159067, -20.96954772011261],
            [-44.78762383816349, -20.969710477527105],
            [-44.787627651202264, -20.969711629376345],
            [-44.78763484126633, -20.969712695503212],
            [-44.78764170414502, -20.96971496391036],
            [-44.78800596588465, -20.969783443091345],
            [-44.78788018804511, -20.970157575908527],
            [-44.78787904084739, -20.970161161493056],
            [-44.787876647564076, -20.970177625309017],
            [-44.78787361565753, -20.97019399712434],
            [-44.78787029866909, -20.970298280458262],
            [-44.78751465123922, -20.970197087932952],
            [-44.78727646425269, -20.97008502169241],
            [-44.78725767130476, -20.970030667321364],
            [-44.78721917764949, -20.96984265749994],
            [-44.787218370603995, -20.96983899198296],
            [-44.787217300993184, -20.969836323695],
            [-44.7872169448262, -20.969833494084966],
            [-44.787210170473905, -20.969818535653392],
            [-44.7872040732576, -20.969803325321728],
            [-44.78720224806708, -20.96980104220112],
            [-44.787201059669805, -20.969798418102844],
            [-44.787190080504516, -20.969785821862825],
            [-44.787179676176216, -20.9697728071416],
            [-44.78717724069141, -20.969771090924457],
            [-44.787175314660665, -20.969768881215938],
            [-44.787161004624984, -20.969759649826585],
            [-44.78714712136996, -20.96974986668592],
            [-44.787144269455375, -20.96974885398288],
            [-44.78714175910324, -20.969747234556564],
            [-44.78707485635537, -20.969716047466484],
            [-44.787071246256616, -20.96971442257522],
            [-44.78706710481624, -20.969713252717924],
            [-44.78706334423947, -20.969711254542204],
            [-44.78704765130157, -20.969707757566386],
            [-44.78703220882137, -20.96970339543407],
            [-44.78702788227768, -20.969703352283286],
            [-44.787023673669154, -20.969702414446466],
            [-44.787007559279736, -20.969703149590387],
            [-44.78699142659011, -20.96970298868813],
            [-44.786987259335106, -20.9697040756786],
            [-44.786982937699186, -20.96970427283233],
            [-44.78696768456026, -20.969709181578605],
            [-44.78695214581996, -20.96971323471427],
            [-44.786948469566305, -20.96971536532176],
            [-44.78694437890434, -20.969716681772677],
            [-44.78693120116294, -20.969725373385995],
            [-44.78691749325298, -20.96973331793087],
            [-44.786914600629984, -20.96973632255939],
            [-44.786911066558, -20.969738653518284],
            [-44.786901013160964, -20.969750436147695],
            [-44.78689022722973, -20.969761639717433],
            [-44.786888348490145, -20.969765279199002],
            [-44.7868856523201, -20.969768439121932],
            [-44.786809886159354, -20.969888854192376],
            [-44.786807904108805, -20.969892106659834],
            [-44.786805233191124, -20.969898693794555],
            [-44.78680134837363, -20.96990473130815],
            [-44.78679804622758, -20.969916418597226],
            [-44.78679346270303, -20.969927722682854],
            [-44.78679286846266, -20.969934744262446],
            [-44.78679094423022, -20.96994155469783],
            [-44.786779713678484, -20.97003123076506],
            [-44.78633870982989, -20.970378996917713],
            [-44.78598444819357, -20.970259717909027],
            [-44.78568563723577, -20.970139364961188],
            [-44.78563622262503, -20.970102054820277],
            [-44.78605197689953, -20.969988680999496],
            [-44.78605580788152, -20.96998758226739],
            [-44.78606695243249, -20.9699825116804],
            [-44.786078632485754, -20.969978631775998]
          ]
        ]
      },
      "id": "0000000000000000040e",
      "properties": {
        "Area_ha": 1.977296,
        "CD_MUN": 3108008,
        "NM_MUN": "Bom Sucesso",
        "Name": "Café",
        "Ultima_at": 1655103600000,
        "ha_recorte": 1.9834597936021412
      }
    },
    {
      "type": "Feature",
      "geometry": {
        "type": "Polygon",
        "coordinates": [
          [
            [-44.78687369287512, -20.970663186752322],
            [-44.78664167136024, -20.97053827463268],
            [-44.786960270078524, -20.97026297037776],
            [-44.78696291841772, -20.97026731335867],
            [-44.78696330037195, -20.970267659262745],
            [-44.78696356702018, -20.970268089214564],
            [-44.78697793150156, -20.970280909454274],
            [-44.78699219549155, -20.970293827154656],
            [-44.78699266571289, -20.970294059672895],
            [-44.78699305035824, -20.970294402967124],
            [-44.78701067799922, -20.97030296650875],
            [-44.78702823830225, -20.97031164984204],
            [-44.78702875936106, -20.970311750465935],
            [-44.787029231385716, -20.9703119797763],
            [-44.78783049203194, -20.970575112852767],
            [-44.787760718566005, -20.971160571700267],
            [-44.787280567127425, -20.97100352001768],
            [-44.78720374672602, -20.970849873554634],
            [-44.78720200119364, -20.970846504978894],
            [-44.787198827222326, -20.970842228669355],
            [-44.78719665905914, -20.970837435783814],
            [-44.787187257287485, -20.970826640427987],
            [-44.7871787690158, -20.97081520412699],
            [-44.787174442211466, -20.970811925825025],
            [-44.78717092666243, -20.970807889179685],
            [-44.78715866990583, -20.97079997557592],
            [-44.78714709856829, -20.9707912082845],
            [-44.787141963344446, -20.97078918894245],
            [-44.78713738024736, -20.9707862298537],
            [-44.78687369287512, -20.970663186752322]
          ]
        ]
      },
      "id": "0000000000000000047a",
      "properties": {
        "Area_ha": 1.259821,
        "CD_MUN": 3108008,
        "NM_MUN": "Bom Sucesso",
        "Name": "Café",
        "Ultima_at": 1655103600000,
        "ha_recorte": 1.2606974522664958
      }
    },
    {
      "type": "Feature",
      "geometry": {
        "type": "Polygon",
        "coordinates": [
          [
            [-44.78608666680874, -20.965527317080607],
            [-44.786582736940574, -20.965917891381096],
            [-44.786584302407505, -20.965919089653934],
            [-44.786584369192795, -20.96591915748496],
            [-44.78697371310367, -20.966216679832456],
            [-44.787009642558594, -20.966252615321288],
            [-44.78700866417602, -20.96625222864057],
            [-44.78700495231553, -20.96625081795027],
            [-44.78699489640904, -20.966248608206893],
            [-44.786985270528056, -20.966245106350467],
            [-44.786975146557324, -20.96624426825771],
            [-44.78696525313208, -20.966242094217005],
            [-44.786954936478054, -20.96624259520472],
            [-44.78694464624103, -20.966241743346078],
            [-44.78693467451575, -20.966243579145385],
            [-44.78692452455496, -20.96624407203648],
            [-44.78691476835688, -20.966247243876694],
            [-44.78690463286457, -20.966249109823682],
            [-44.786356073162864, -20.966428117878976],
            [-44.78599675517156, -20.966130230767615],
            [-44.78602062768462, -20.966100120975817],
            [-44.7860229673884, -20.966097082789013],
            [-44.7860232346847, -20.966096589020307],
            [-44.78602363550738, -20.966096181567277],
            [-44.78603242896196, -20.966079604696283],
            [-44.786041366276365, -20.96606309504817],
            [-44.786041475239465, -20.966062551215018],
            [-44.78604173823304, -20.966062055435774],
            [-44.78614874206742, -20.9657588909926],
            [-44.78614994363388, -20.965755320978793],
            [-44.78615103647352, -20.965748528023315],
            [-44.78615342568896, -20.965742031246005],
            [-44.78615405187359, -20.965729784667815],
            [-44.7861560024393, -20.965717660188968],
            [-44.786155019898594, -20.965710852557315],
            [-44.78615537072956, -20.96570399119346],
            [-44.786152308839085, -20.96569206870676],
            [-44.78615055514153, -20.96567991803302],
            [-44.78614757543226, -20.96567363761261],
            [-44.78614585995414, -20.96566695782672],
            [-44.78608666680874, -20.965527317080607]
          ]
        ]
      },
      "id": "0000000000000000047b",
      "properties": {
        "Area_ha": 21.313469,
        "CD_MUN": 3108008,
        "NM_MUN": "Bom Sucesso",
        "Name": "Café",
        "Ultima_at": 1655103600000,
        "ha_recorte": 1.3403018298128646
      }
    },
    {
      "type": "Feature",
      "geometry": {
        "type": "Polygon",
        "coordinates": [
          [
            [-44.78403889848409, -20.96596992362842],
            [-44.78403697097575, -20.965966642729132],
            [-44.78402787527095, -20.96595563473601],
            [-44.78401971156167, -20.965944007090442],
            [-44.78387945086607, -20.965795230567768],
            [-44.783822716140115, -20.965714132241896],
            [-44.78382047811333, -20.96571102798451],
            [-44.78381725198243, -20.965707780786325],
            [-44.78381485358755, -20.96570395928514],
            [-44.7836504879898, -20.965510880693532],
            [-44.78362462549739, -20.965447038113876],
            [-44.78404235524015, -20.965055800527786],
            [-44.78439596980247, -20.965808867819284],
            [-44.78420023224031, -20.96596671294986],
            [-44.784197235791616, -20.965969197856513],
            [-44.78419511222996, -20.965971604374197],
            [-44.784192442551934, -20.96597347755381],
            [-44.78418218008732, -20.96598625967045],
            [-44.784171300596306, -20.965998588804894],
            [-44.78416998138195, -20.96600145341225],
            [-44.78416797825612, -20.966003948346845],
            [-44.78416194758243, -20.96601889839959],
            [-44.78415518894585, -20.966033574431975],
            [-44.784154779088674, -20.96603666910652],
            [-44.784153601964135, -20.966039587199596],
            [-44.78413143035012, -20.96613273825971],
            [-44.78403889848409, -20.96596992362842]
          ]
        ]
      },
      "id": "0000000000000000047c",
      "properties": {
        "Area_ha": 1.002402,
        "CD_MUN": 3108008,
        "NM_MUN": "Bom Sucesso",
        "Name": "Café",
        "Ultima_at": 1655103600000,
        "ha_recorte": 1.0058999634258883
      }
    }
  ]
}
